NORAD_CAT_ID,OBJECT_NAME,OBJECT_TYPE,EPOCH,MEAN_MOTION,ECCENTRICITY,INCLINATION,RA_OF_ASC_NODE,ARG_OF_PERICENTER,MEAN_ANOMALY,BSTAR,MEAN_MOTION_DOT,MEAN_MOTION_DDOT,TLE_LINE0,TLE_LINE1,TLE_LINE2,SEMIMAJOR_AXIS,PERIOD,APOGEE,PERIGEE,DECAYED
55959.0,STARLINK-5929,PAYLOAD,2024-07-03 21:35:16,14.9833407,0.0002804,70.0005,12.0276,266.3804,93.7034,6.791e-05,7.17e-06,0.0,0 STARLINK-5929,1 55959U 23037AX  24185.89949695  .00000717  00000-0  67910-4 0  9999,2 55959  70.0005  12.0276 0002804 266.3804  93.7034 14.98334070 72530,6950.18,96.107,573.994,570.096,0.0
55959.0,STARLINK-5929,PAYLOAD,2024-07-04 13:36:37,14.98329572,0.0002879,70.0004,10.3441,267.182,92.9009,8.5393e-05,9.26e-06,0.0,0 STARLINK-5929,1 55959U 23037AX  24186.56709770  .00000926  00000-0  85393-4 0  9999,2 55959  70.0004  10.3441 0002879 267.1820  92.9009 14.98329572 72638,6950.194,96.107,574.06,570.058,0.0
55959.0,STARLINK-5929,PAYLOAD,2024-07-04 20:01:09,14.98329611,0.0002912,70.0004,9.6708,266.4806,93.602,7.642e-05,8.19e-06,0.0,0 STARLINK-5929,1 55959U 23037AX  24186.83413808  .00000819  00000-0  76420-4 0  9995,2 55959  70.0004   9.6708 0002912 266.4806  93.6020 14.98329611 73017,6950.194,96.107,574.083,570.035,0.0
55959.0,STARLINK-5929,PAYLOAD,2024-07-04 21:37:17,14.98330346,0.0002942,70.0004,9.5024,267.0297,93.0526,8.0165e-05,8.64e-06,0.0,0 STARLINK-5929,1 55959U 23037AX  24186.90089749  .00000864  00000-0  80165-4 0  9997,2 55959  70.0004   9.5024 0002942 267.0297  93.0526 14.98330346 72685,6950.192,96.107,574.102,570.012,0.0
55959.0,STARLINK-5929,PAYLOAD,2024-07-05 13:38:37,14.98333443,0.0003039,70.0002,7.8189,268.5307,91.5504,5.3741e-05,5.48e-06,0.0,0 STARLINK-5929,1 55959U 23037AX  24187.56849537  .00000548  00000-0  53741-4 0  9998,2 55959  70.0002   7.8189 0003039 268.5307  91.5504 14.98333443 72783,6950.182,96.107,574.159,569.935,0.0
55959.0,STARLINK-5929,PAYLOAD,2024-07-05 20:03:10,14.98335559,0.0003016,70.0003,7.1457,268.0525,92.0289,7.6524e-05,8.2e-06,0.0,0 STARLINK-5929,1 55959U 23037AX  24187.83553300  .00000820  00000-0  76524-4 0  9995,2 55959  70.0003   7.1457 0003016 268.0525  92.0289 14.98335559 73166,6950.176,96.107,574.137,569.945,0.0
55959.0,STARLINK-5929,PAYLOAD,2024-07-05 21:39:18,14.98336389,0.0003014,70.0003,6.9774,268.1009,91.9805,8.4567e-05,9.16e-06,0.0,0 STARLINK-5929,1 55959U 23037AX  24187.90229210  .00000916  00000-0  84567-4 0  9995,2 55959  70.0003   6.9774 0003014 268.1009  91.9805 14.98336389 72838,6950.173,96.107,574.133,569.943,0.0
55959.0,STARLINK-5929,PAYLOAD,2024-07-06 12:04:31,14.98323923,0.0003099,70.0,5.4614,267.9162,92.1642,0.00011304,1.256e-05,0.0,0 STARLINK-5929,1 55959U 23037AX  24188.50313760  .00001256  00000-0  11304-3 0  9992,2 55959  70.0000   5.4614 0003099 267.9162  92.1642 14.98323923 73262,6950.212,96.107,574.231,569.923,0.0
55959.0,STARLINK-5929,PAYLOAD,2024-07-06 13:40:39,14.98327414,0.0003069,70.0001,5.2935,268.3989,91.6818,3.8767e-05,3.7e-06,0.0,0 STARLINK-5929,1 55959U 23037AX  24188.56989720  .00000370  00000-0  38767-4 0  9992,2 55959  70.0001   5.2935 0003069 268.3989  91.6818 14.98327414 72937,6950.201,96.107,574.199,569.933,0.0
55959.0,STARLINK-5929,PAYLOAD,2024-07-06 21:41:19,14.98329798,0.0003035,70.0005,4.4534,269.2072,90.874,2.5446e-05,2.11e-06,0.0,0 STARLINK-5929,1 55959U 23037AX  24188.90369653  .00000211  00000-0  25446-4 0  9991,2 55959  70.0005   4.4534 0003035 269.2072  90.8740 14.98329798 72980,6950.194,96.107,574.168,569.949,0.0
55959.0,STARLINK-5929,PAYLOAD,2024-07-07 12:06:32,14.98328488,0.0003033,70.0006,2.9376,270.4604,89.6208,2.2957e-05,1.81e-06,0.0,0 STARLINK-5929,1 55959U 23037AX  24189.50453769  .00000181  00000-0  22957-4 0  9990,2 55959  70.0006   2.9376 0003033 270.4604  89.6208 14.98328488 73410,6950.198,96.107,574.171,569.955,0.0
55959.0,STARLINK-5929,PAYLOAD,2024-07-07 20:07:13,14.98320235,0.0003197,70.0,2.0962,270.8356,89.2437,-0.00012044,-1.529e-05,0.0,0 STARLINK-5929,1 55959U 23037AX  24189.83834730 -.00001529  00000-0 -12044-3 0  9991,2 55959  70.0000   2.0962 0003197 270.8356  89.2437 14.98320235 73462,6950.223,96.108,574.31,569.866,0.0
55959.0,STARLINK-5929,PAYLOAD,2024-07-08 13:44:41,14.98324101,0.0003227,70.0001,0.2444,271.5037,88.5752,6.5036e-05,6.83e-06,0.0,0 STARLINK-5929,1 55959U 23037AX  24190.57270353  .00000683  00000-0  65036-4 0  9997,2 55959  70.0001   0.2444 0003227 271.5037  88.5752 14.98324101 73576,6950.211,96.107,574.319,569.833,0.0
55959.0,STARLINK-5929,PAYLOAD,2024-07-08 21:45:21,14.98331935,0.0003252,70.0,359.403,271.3311,88.7475,0.00010268,1.132e-05,0.0,0 STARLINK-5929,1 55959U 23037AX  24190.90649852  .00001132  00000-0  10268-3 0  9994,2 55959  70.0000 359.4030 0003252 271.3311  88.7475 14.98331935 73281,6950.187,96.107,574.312,569.792,0.0
55959.0,STARLINK-5929,PAYLOAD,2024-07-09 04:09:53,14.98334385,0.0003249,70.0001,358.7295,271.1455,88.9331,8.819e-05,9.6e-06,0.0,0 STARLINK-5929,1 55959U 23037AX  24191.17353697  .00000960  00000-0  88190-4 0  9991,2 55959  70.0001 358.7295 0003249 271.1455  88.9331 14.98334385 73667,6950.179,96.107,574.302,569.786,0.0
55959.0,STARLINK-5929,PAYLOAD,2024-07-09 13:46:41,14.98332063,0.0003315,69.9999,357.7193,271.9076,88.1703,0.00019616,2.248e-05,0.0,0 STARLINK-5929,1 55959U 23037AX  24191.57409559  .00002248  00000-0  19616-3 0  9991,2 55959  69.9999 357.7193 0003315 271.9076  88.1703 14.98332063 73382,6950.187,96.107,574.355,569.748,0.0
55959.0,STARLINK-5929,PAYLOAD,2024-07-09 20:11:13,14.9833587,0.0003076,70.0006,357.0461,268.9403,91.1404,0.00031176,3.629e-05,0.0,0 STARLINK-5929,1 55959U 23037AX  24191.84113150  .00003629  00000-0  31176-3 0  9999,2 55959  70.0006 357.0461 0003076 268.9403  91.1404 14.98335870 73425,6950.175,96.107,574.178,569.902,0.0
55959.0,STARLINK-5929,PAYLOAD,2024-07-10 10:36:26,14.98333007,0.0002937,70.0009,355.5312,268.9855,91.0968,6.9146e-05,7.32e-06,0.0,0 STARLINK-5929,1 55959U 23037AX  24192.44197838  .00000732  00000-0  69146-4 0  9992,2 55959  70.0009 355.5312 0002937 268.9855  91.0968 14.98333007 73853,6950.184,96.107,574.09,570.007,0.0
55959.0,STARLINK-5929,PAYLOAD,2024-07-10 20:13:15,14.98331922,0.0002964,70.0009,354.5212,269.2225,90.8595,4.4049e-05,4.33e-06,0.0,0 STARLINK-5929,1 55959U 23037AX  24192.84253871  .00000433  00000-0  44049-4 0  9999,2 55959  70.0009 354.5212 0002964 269.2225  90.8595 14.98331922 73572,6950.187,96.107,574.112,569.992,0.0
55959.0,STARLINK-5929,PAYLOAD,2024-07-11 13:50:43,14.98336911,0.00029,70.0013,352.6705,265.2489,94.8338,-4.336e-05,-6.1e-06,0.0,0 STARLINK-5929,1 55959U 23037AX  24193.57689479 -.00000610  00000-0 -43360-4 0  9991,2 55959  70.0013 352.6705 0002900 265.2489  94.8338 14.98336911 73685,6950.172,96.107,574.052,570.021,0.0
55959.0,STARLINK-5929,PAYLOAD,2024-07-12 13:52:44,14.98330893,0.0003024,70.0006,350.1434,268.6134,91.4678,6.0126e-05,6.24e-06,0.0,0 STARLINK-5929,1 55959U 23037AX  24194.57829394  .00000624  00000-0  60126-4 0  9996,2 55959  70.0006 350.1434 0003024 268.6134  91.4678 14.98330893 73831,6950.19,96.107,574.157,569.953,0.0
55959.0,STARLINK-5929,PAYLOAD,2024-07-12 20:17:16,14.98333675,0.0003055,70.001,349.4709,270.6874,89.3935,8.5112e-05,9.23e-06,0.0,0 STARLINK-5929,1 55959U 23037AX  24194.84533152  .00000923  00000-0  85112-4 0  9994,2 55959  70.0010 349.4709 0003055 270.6874  89.3935 14.98333675 74216,6950.182,96.107,574.17,569.923,0.0
55959.0,STARLINK-5929,PAYLOAD,2024-07-13 13:54:45,14.98332167,0.0003051,70.0011,347.6193,270.7823,89.2986,5.6412e-05,5.8e-06,0.0,0 STARLINK-5929,1 55959U 23037AX  24195.57969294  .00000580  00000-0  56412-4 0  9995,2 55959  70.0011 347.6193 0003051 270.7823  89.2986 14.98332167 73988,6950.186,96.107,574.172,569.931,0.0
55959.0,STARLINK-5929,PAYLOAD,2024-07-13 20:19:17,14.98336961,0.0003034,70.0013,346.9461,270.9155,89.1657,0.00010977,1.217e-05,0.0,0 STARLINK-5929,1 55959U 23037AX  24195.84672866  .00001217  00000-0  10977-3 0  9994,2 55959  70.0013 346.9461 0003034 270.9155  89.1657 14.98336961 74364,6950.171,96.107,574.145,569.928,0.0
55959.0,STARLINK-5929,PAYLOAD,2024-07-14 12:20:38,14.98331422,0.0002999,70.0015,345.2629,271.1612,88.9204,4.8127e-05,4.81e-06,0.0,0 STARLINK-5929,1 55959U 23037AX  24196.51433248  .00000481  00000-0  48127-4 0  9999,2 55959  70.0015 345.2629 0002999 271.1612  88.9204 14.98331422 74467,6950.188,96.107,574.138,569.969,0.0
55959.0,STARLINK-5929,PAYLOAD,2024-07-14 13:56:46,14.983316,0.0003,70.0015,345.0946,271.184,88.8975,4.8645e-05,4.88e-06,0.0,0 STARLINK-5929,1 55959U 23037AX  24196.58109228  .00000488  00000-0  48645-4 0  9996,2 55959  70.0015 345.0946 0003000 271.1840  88.8975 14.98331600 74130,6950.188,96.107,574.138,569.968,0.0
55959.0,STARLINK-5929,PAYLOAD,2024-07-14 20:21:18,14.98338191,0.0002955,70.0016,344.4213,271.2243,88.8578,0.00011775,1.313e-05,0.0,0 STARLINK-5929,1 55959U 23037AX  24196.84812586  .00001313  00000-0  11775-3 0  9994,2 55959  70.0016 344.4213 0002955 271.2243  88.8578 14.98338191 74510,6950.168,96.106,574.086,569.979,0.0
55959.0,STARLINK-5929,PAYLOAD,2024-07-15 02:45:49,14.98364878,0.0003078,70.002,343.7476,276.6462,83.4347,-0.00055054,-6.662e-05,0.0,0 STARLINK-5929,1 55959U 23037AX  24197.11515915 -.00006662  00000-0 -55054-3 0  9993,2 55959  70.0020 343.7476 0003078 276.6462  83.4347 14.98364878 74557,6950.085,96.105,574.089,569.811,0.0
55959.0,STARLINK-5929,PAYLOAD,2024-07-15 12:22:39,14.98324263,0.0002841,70.0022,342.7391,266.1794,93.9041,0.00018043,2.06e-05,0.0,0 STARLINK-5929,1 55959U 23037AX  24197.51573274  .00002060  00000-0  18043-3 0  9992,2 55959  70.0022 342.7391 0002841 266.1794  93.9041 14.98324263 74611,6950.211,96.107,574.05,570.101,0.0
55959.0,STARLINK-5929,PAYLOAD,2024-07-15 13:58:47,14.98301672,0.0003042,70.0022,342.5708,263.0854,96.9959,0.0005863,6.904e-05,0.0,0 STARLINK-5929,1 55959U 23037AX  24197.58249946  .00006904  00000-0  58630-3 0  9992,2 55959  70.0022 342.5708 0003042 263.0854  96.9959 14.98301672 74281,6950.28,96.109,574.26,570.031,0.0
